CCSDS_OMM_VERS = 2.0
CREATION_DATE  = 
ORIGINATOR     = 

OBJECT_NAME    = SL-14 R/B
OBJECT_ID      = 1986-046B
CENTER_NAME    = EARTH
REF_FRAME      = TEME
TIME_SYSTEM    = UTC
MEAN_ELEMENT_THEORY = SGP/SGP4

EPOCH          = 2026-03-02T12:47:28.145760
MEAN_MOTION    = 14.85582066
ECCENTRICITY   = .002162
INCLINATION    = 82.4783
RA_OF_ASC_NODE = 86.9461
ARG_OF_PERICENTER = 250.4132
MEAN_ANOMALY   = 109.4750

EPHEMERIS_TYPE = 0
CLASSIFICATION_TYPE = U
NORAD_CAT_ID   = 16792
ELEMENT_SET_NO = 999
REV_AT_EPOCH   = 12534
BSTAR          = .62365E-4
MEAN_MOTION_DOT = .565E-5
MEAN_MOTION_DDOT = 0

CCSDS_OMM_VERS = 2.0
CREATION_DATE  = 
ORIGINATOR     = 

OBJECT_NAME    = SL-14 R/B
OBJECT_ID      = 1986-055B
CENTER_NAME    = EARTH
REF_FRAME      = TEME
TIME_SYSTEM    = UTC
MEAN_ELEMENT_THEORY = SGP/SGP4

EPOCH          = 2026-03-02T16:22:43.425120
MEAN_MOTION    = 14.85635037
ECCENTRICITY   = .0018796
INCLINATION    = 82.5213
RA_OF_ASC_NODE = 133.2599
ARG_OF_PERICENTER = 0.1945
MEAN_ANOMALY   = 162.3675

EPHEMERIS_TYPE = 0
CLASSIFICATION_TYPE = U
NORAD_CAT_ID   = 16882
ELEMENT_SET_NO = 999
REV_AT_EPOCH   = 11832
BSTAR          = .61425E-4
MEAN_MOTION_DOT = .557E-5
MEAN_MOTION_DDOT = 0

CCSDS_OMM_VERS = 2.0
CREATION_DATE  = 
ORIGINATOR     = 

OBJECT_NAME    = AJISAI (EGS)
OBJECT_ID      = 1986-061A
CENTER_NAME    = EARTH
REF_FRAME      = TEME
TIME_SYSTEM    = UTC
MEAN_ELEMENT_THEORY = SGP/SGP4

EPOCH          = 2026-03-02T17:45:09.490752
MEAN_MOTION    = 12.44515513
ECCENTRICITY   = .0011247
INCLINATION    = 50.0080
RA_OF_ASC_NODE = 114.7196
ARG_OF_PERICENTER = 269.1149
MEAN_ANOMALY   = 209.0950

EPHEMERIS_TYPE = 0
CLASSIFICATION_TYPE = U
NORAD_CAT_ID   = 16908
ELEMENT_SET_NO = 999
REV_AT_EPOCH   = 46713
BSTAR          = .133E-3
MEAN_MOTION_DOT = -.78E-6
MEAN_MOTION_DDOT = 0

CCSDS_OMM_VERS = 2.0
CREATION_DATE  = 
ORIGINATOR     = 

OBJECT_NAME    = SL-14 R/B
OBJECT_ID      = 1987-024B
CENTER_NAME    = EARTH
REF_FRAME      = TEME
TIME_SYSTEM    = UTC
MEAN_ELEMENT_THEORY = SGP/SGP4

EPOCH          = 2026-03-02T13:39:19.778688
MEAN_MOTION    = 14.86124082
ECCENTRICITY   = .0016694
INCLINATION    = 82.5254
RA_OF_ASC_NODE = 99.4581
ARG_OF_PERICENTER = 285.6736
MEAN_ANOMALY   = 74.2638

EPHEMERIS_TYPE = 0
CLASSIFICATION_TYPE = U
NORAD_CAT_ID   = 17567
ELEMENT_SET_NO = 999
REV_AT_EPOCH   = 8707
BSTAR          = .59098E-4
MEAN_MOTION_DOT = .543E-5
MEAN_MOTION_DDOT = 0

CCSDS_OMM_VERS = 2.0
CREATION_DATE  = 
ORIGINATOR     = 

OBJECT_NAME    = COSMOS 1833
OBJECT_ID      = 1987-027A
CENTER_NAME    = EARTH
REF_FRAME      = TEME
TIME_SYSTEM    = UTC
MEAN_ELEMENT_THEORY = SGP/SGP4

EPOCH          = 2026-03-02T18:45:05.789664
MEAN_MOTION    = 14.13056234
ECCENTRICITY   = .0024564
INCLINATION    = 70.9233
RA_OF_ASC_NODE = 340.5371
ARG_OF_PERICENTER = 224.0710
MEAN_ANOMALY   = 135.8453

EPHEMERIS_TYPE = 0
CLASSIFICATION_TYPE = U
NORAD_CAT_ID   = 17589
ELEMENT_SET_NO = 999
REV_AT_EPOCH   = 934
BSTAR          = -.44856E-4
MEAN_MOTION_DOT = -.132E-5
MEAN_MOTION_DDOT = 0

CCSDS_OMM_VERS = 2.0
CREATION_DATE  = 
ORIGINATOR     = 

OBJECT_NAME    = SL-16 R/B
OBJECT_ID      = 1987-027B
CENTER_NAME    = EARTH
REF_FRAME      = TEME
TIME_SYSTEM    = UTC
MEAN_ELEMENT_THEORY = SGP/SGP4

EPOCH          = 2026-03-02T18:36:00.422496
MEAN_MOTION    = 14.17166614
ECCENTRICITY   = .0003751
INCLINATION    = 71.0019
RA_OF_ASC_NODE = 291.0670
ARG_OF_PERICENTER = 157.3546
MEAN_ANOMALY   = 202.7743

EPHEMERIS_TYPE = 0
CLASSIFICATION_TYPE = U
NORAD_CAT_ID   = 17590
ELEMENT_SET_NO = 999
REV_AT_EPOCH   = 1436
BSTAR          = -.66724E-4
MEAN_MOTION_DOT = -.182E-5
MEAN_MOTION_DDOT = 0

CCSDS_OMM_VERS = 2.0
CREATION_DATE  = 
ORIGINATOR     = 

OBJECT_NAME    = SL-14 R/B
OBJECT_ID      = 1987-038B
CENTER_NAME    = EARTH
REF_FRAME      = TEME
TIME_SYSTEM    = UTC
MEAN_ELEMENT_THEORY = SGP/SGP4

EPOCH          = 2026-03-02T18:17:49.872192
MEAN_MOTION    = 14.85362054
ECCENTRICITY   = .0019075
INCLINATION    = 82.5014
RA_OF_ASC_NODE = 303.3337
ARG_OF_PERICENTER = 183.0305
MEAN_ANOMALY   = 177.0799

EPHEMERIS_TYPE = 0
CLASSIFICATION_TYPE = U
NORAD_CAT_ID   = 17912
ELEMENT_SET_NO = 999
REV_AT_EPOCH   = 7820
BSTAR          = .59139E-4
MEAN_MOTION_DOT = .534E-5
MEAN_MOTION_DDOT = 0

CCSDS_OMM_VERS = 2.0
CREATION_DATE  = 
ORIGINATOR     = 

OBJECT_NAME    = COSMOS 1844
OBJECT_ID      = 1987-041A
CENTER_NAME    = EARTH
REF_FRAME      = TEME
TIME_SYSTEM    = UTC
MEAN_ELEMENT_THEORY = SGP/SGP4

EPOCH          = 2026-03-02T09:35:19.919040
MEAN_MOTION    = 14.14553253
ECCENTRICITY   = .00296119
INCLINATION    = 70.8992
RA_OF_ASC_NODE = 49.5518
ARG_OF_PERICENTER = 28.9163
MEAN_ANOMALY   = 331.3591

EPHEMERIS_TYPE = 0
CLASSIFICATION_TYPE = U
NORAD_CAT_ID   = 17973
ELEMENT_SET_NO = 999
REV_AT_EPOCH   = 255
BSTAR          = .186442E-6
MEAN_MOTION_DOT = -.48E-6
MEAN_MOTION_DDOT = 0

CCSDS_OMM_VERS = 2.0
CREATION_DATE  = 
ORIGINATOR     = 

OBJECT_NAME    = SL-14 R/B
OBJECT_ID      = 1987-055B
CENTER_NAME    = EARTH
REF_FRAME      = TEME
TIME_SYSTEM    = UTC
MEAN_ELEMENT_THEORY = SGP/SGP4

EPOCH          = 2026-03-02T19:23:22.586784
MEAN_MOTION    = 14.85619388
ECCENTRICITY   = .0021711
INCLINATION    = 82.5027
RA_OF_ASC_NODE = 355.5152
ARG_OF_PERICENTER = 39.7829
MEAN_ANOMALY   = 320.4974

EPHEMERIS_TYPE = 0
CLASSIFICATION_TYPE = U
NORAD_CAT_ID   = 18153
ELEMENT_SET_NO = 999
REV_AT_EPOCH   = 6891
BSTAR          = .80186E-4
MEAN_MOTION_DOT = .721E-5
MEAN_MOTION_DDOT = 0

CCSDS_OMM_VERS = 2.0
CREATION_DATE  = 
ORIGINATOR     = 

OBJECT_NAME    = COSMOS 1867
OBJECT_ID      = 1987-060A
CENTER_NAME    = EARTH
REF_FRAME      = TEME
TIME_SYSTEM    = UTC
MEAN_ELEMENT_THEORY = SGP/SGP4

EPOCH          = 2026-03-02T19:18:21.961440
MEAN_MOTION    = 14.31501715
ECCENTRICITY   = .0014388
INCLINATION    = 65.0119
RA_OF_ASC_NODE = 325.9869
ARG_OF_PERICENTER = 278.2114
MEAN_ANOMALY   = 81.7338

EPHEMERIS_TYPE = 0
CLASSIFICATION_TYPE = U
NORAD_CAT_ID   = 18187
ELEMENT_SET_NO = 999
REV_AT_EPOCH   = 1895
BSTAR          = .3606E-4
MEAN_MOTION_DOT = -.4E-7
MEAN_MOTION_DDOT = 0

CCSDS_OMM_VERS = 2.0
CREATION_DATE  = 
ORIGINATOR     = 

OBJECT_NAME    = SL-14 R/B
OBJECT_ID      = 1988-001B
CENTER_NAME    = EARTH
REF_FRAME      = TEME
TIME_SYSTEM    = UTC
MEAN_ELEMENT_THEORY = SGP/SGP4

EPOCH          = 2026-03-02T19:15:54.354816
MEAN_MOTION    = 14.85517506
ECCENTRICITY   = .0016589
INCLINATION    = 82.5141
RA_OF_ASC_NODE = 201.8362
ARG_OF_PERICENTER = 260.3883
MEAN_ANOMALY   = 99.5459

EPHEMERIS_TYPE = 0
CLASSIFICATION_TYPE = U
NORAD_CAT_ID   = 18749
ELEMENT_SET_NO = 999
REV_AT_EPOCH   = 4100
BSTAR          = .80829E-4
MEAN_MOTION_DOT = .723E-5
MEAN_MOTION_DDOT = 0

